{"spkid": "50102807", "covariance": {"labels": ["e", "q", "tp", "node", "peri", "i", "A2"], "data": [["4.399732342073032E-16", "-4.707714159897222E-16", "1.614549604916969E-14", "3.750989650019989E-14", "4.383155592523581E-14", "-1.045946311889806E-16", "1.864329552978633E-23"], ["-4.707714159897222E-16", "5.038192337843935E-16", "-1.688362667570332E-14", "-4.096242667407006E-14", "-4.575834702944803E-14", "7.494788262435181E-16", "-2.003441446125445E-23"], ["1.614549604916969E-14", "-1.688362667570332E-14", "2.576918854658394E-12", "1.192912721711211E-12", "3.587195455179583E-12", "1.102192755159945E-12", "1.212002593843738E-21"], ["3.750989650019989E-14", "-4.096242667407006E-14", "1.192912721711211E-12", "1.094493682207463E-10", "-1.017093759425647E-10", "-6.968333374288132E-11", "-2.346394305296735E-21"], ["4.383155592523581E-14", "-4.575834702944803E-14", "3.587195455179583E-12", "-1.017093759425647E-10", "1.110040251048441E-10", "6.879139528123893E-11", "8.156425677730706E-21"], ["-1.045946311889806E-16", "7.494788262435181E-16", "1.102192755159945E-12", "-6.968333374288132E-11", "6.879139528123893E-11", "5.658437467399191E-11", "-2.31683082671827E-21"], ["1.864329552978633E-23", "-2.003441446125445E-23", "1.212002593843738E-21", "-2.346394305296735E-21", "8.156425677730706E-21", "-2.31683082671827E-21", "1.16201307388776E-29"]], "elements": [{"units": null, "value": ".2218346072966312", "title": "eccentricity", "sigma": 2.09755389491499e-08, "name": "e", "label": "e"}, {"label": "q", "sigma": 2.24459179759794e-08, "name": "q", "units": "au", "value": ".8352009850200888", "title": "perihelion distance"}, {"units": "TDB", "title": "time of perihelion passage", "value": "2456278.066393089858", "name": "tp", "sigma": 1.60527843524368e-06, "label": "tp"}, {"label": "node", "title": "longitude of the ascending node", "value": "305.9455690709383", "units": "deg", "name": "om", "sigma": 1.04618052085071e-05}, {"sigma": 1.05358447741434e-05, "name": "w", "value": "78.01263547018337", "title": "argument of perihelion", "units": "deg", "label": "peri"}, {"label": "i", "title": "inclination", "value": "6.275464815970214", "units": "deg", "sigma": 7.52225861520274e-06, "name": "i"}], "epoch": "2456291.5"}, "elements": [{"label": "e", "name": "e", "sigma": "2.1151E-8", "units": null, "value": ".2215130418677884", "title": "eccentricity"}, {"label": "a", "value": "1.074593034643565", "title": "semi-major axis", "units": "au", "sigma": "3.2045E-9", "name": "a"}, {"label": "q", "name": "q", "sigma": "2.2116E-8", "units": "au", "value": ".8365566627697314", "title": "perihelion distance"}, {"label": "i", "value": "6.312905097668864", "title": "inclination; angle with respect to x-y ecliptic plane", "units": "deg", "sigma": "7.4853E-6", "name": "i"}, {"sigma": "1.0228E-5", "name": "om", "units": "deg", "value": "305.7644352184544", "title": "longitude of the ascending node", "label": "node"}, {"label": "peri", "sigma": "1.0222E-5", "name": "w", "units": "deg", "title": "argument of perihelion", "value": "77.88370696109637"}, {"units": "deg", "value": "40.24689027554164", "title": "mean anomaly", "sigma": "1.0314E-5", "name": "ma", "label": "M"}, {"name": "tp", "sigma": "1.1459E-5", "units": "TDB", "value": "2461155.012267580245", "title": "time of perihelion passage", "label": "tp"}, {"name": "per", "sigma": "1.82E-6", "title": "sidereal orbital period", "value": "406.8782347903116", "units": "d", "label": "period"}, {"title": "mean motion", "value": ".8847855923911224", "units": "deg/d", "sigma": "3.9577E-9", "name": "n", "label": "n"}, {"units": "au", "value": "1.312629406517399", "title": "aphelion distance", "name": "ad", "sigma": "3.9143E-9", "label": "Q"}], "epoch": "2461200.5"}